{
  "type": "FeatureCollection",
  "features": [
    {
      "type": "Feature",
      "properties": {
        "name": "一号林区",
        "id": 1,
        "area_mu": 2400,
        "tree": "马尾松"
      },
      "geometry": {
        "type": "Polygon",
        "coordinates": [
          [
            [
              119.8545,
              28.5303
            ],
            [
              119.90525,
              28.5303
            ],
            [
              119.90525,
              28.5757
            ],
            [
              119.8595,
              28.5757
            ],
            [
              119.8545,
              28.5303
            ]
          ]
        ]
      }
    },
    {
      "type": "Feature",
      "properties": {
        "name": "二号林区",
        "id": 2,
        "area_mu": 2500,
        "tree": "杉木"
      },
      "geometry": {
        "type": "Polygon",
        "coordinates": [
          [
            [
              119.91524999999999,
              28.5303
            ],
            [
              119.961,
              28.5303
            ],
            [
              119.961,
              28.5757
            ],
            [
              119.91524999999999,
              28.5757
            ],
            [
              119.91524999999999,
              28.5303
            ]
          ]
        ]
      }
    },
    {
      "type": "Feature",
      "properties": {
        "name": "三号林区",
        "id": 3,
        "area_mu": 2200,
        "tree": "阔叶混交"
      },
      "geometry": {
        "type": "Polygon",
        "coordinates": [
          [
            [
              119.8745,
              28.4999
            ],
            [
              119.92025,
              28.4999
            ],
            [
              119.92025,
              28.5203
            ],
            [
              119.8745,
              28.5203
            ],
            [
              119.8745,
              28.4999
            ]
          ]
        ]
      }
    },
    {
      "type": "Feature",
      "properties": {
        "name": "四号林区",
        "id": 4,
        "area_mu": 2300,
        "tree": "马尾松"
      },
      "geometry": {
        "type": "Polygon",
        "coordinates": [
          [
            [
              119.90024999999999,
              28.4999
            ],
            [
              119.946,
              28.4999
            ],
            [
              119.946,
              28.5203
            ],
            [
              119.90024999999999,
              28.5203
            ],
            [
              119.90024999999999,
              28.4999
            ]
          ]
        ]
      }
    },
    {
      "type": "Feature",
      "properties": {
        "name": "五号林区",
        "id": 5,
        "area_mu": 2100,
        "tree": "杉木"
      },
      "geometry": {
        "type": "Polygon",
        "coordinates": [
          [
            [
              119.8845,
              28.5149
            ],
            [
              119.93599999999999,
              28.5149
            ],
            [
              119.93599999999999,
              28.5499
            ],
            [
              119.8845,
              28.5499
            ],
            [
              119.8845,
              28.5149
            ]
          ]
        ]
      }
    }
  ]
}